NORAD_CAT_ID,OBJECT_NAME,OBJECT_TYPE,EPOCH,MEAN_MOTION,ECCENTRICITY,INCLINATION,RA_OF_ASC_NODE,ARG_OF_PERICENTER,MEAN_ANOMALY,BSTAR,MEAN_MOTION_DOT,MEAN_MOTION_DDOT,TLE_LINE0,TLE_LINE1,TLE_LINE2,SEMIMAJOR_AXIS,PERIOD,APOGEE,PERIGEE,DECAYED
53891.0,STARLINK-5041,PAYLOAD,2022-10-08 22:00:00,15.7324364,0.0001004999999999,53.2191,183.9599,87.8711,319.9841,-0.00035047,-0.00049606,0.0,0 STARLINK-5041,1 53891U 22119F   22281.91667824 -.00049606  00000-0 -35047-3 0  9998,2 53891  53.2191 183.9599 0001005  87.8711 319.9841 15.73243640  1305,6727.771,91.531,350.31199999999984,348.96,0.0
53891.0,STARLINK-5041,PAYLOAD,2022-10-09 04:00:00,15.73192634,9.55e-05,53.2183,182.724,77.6179,306.9693,0.00066136,0.00093202,0.0,0 STARLINK-5041,1 53891U 22119F   22282.16667824  .00093202  00000-0  66136-3 0  9998,2 53891  53.2183 182.7240 0000955  77.6179 306.9693 15.73192634  2661,6727.916,91.534,350.4240000000001,349.139,0.0
53891.0,STARLINK-5041,PAYLOAD,2022-10-09 12:00:00,15.73217054,8.92e-05,53.2178,181.0727,93.1757,20.3645,-9.4448e-05,-0.00013862,0.0,0 STARLINK-5041,1 53891U 22119F   22282.50001157 -.00013862  00000-0 -94448-4 0  9991,2 53891  53.2178 181.0727 0000892  93.1757  20.3645 15.73217054  2727,6727.847,91.532,350.31199999999984,349.111,0.0
53891.0,STARLINK-5041,PAYLOAD,2022-10-09 14:00:01,15.73201456,9.33e-05,53.2177,180.6598,95.9844,129.7973,0.00010836,0.00014615,0.0,0 STARLINK-5041,1 53891U 22119F   22282.58334491  .00014615  00000-0  10836-3 0  9992,2 53891  53.2177 180.6598 0000933  95.9844 129.7973 15.73201456  1300,6727.891,91.533,350.384,349.12800000000016,0.0
53891.0,STARLINK-5041,PAYLOAD,2022-10-09 22:00:00,15.73251467,0.0001072,53.2178,179.0116,88.9851,225.7257,-0.00091177,-0.00126943,0.0,0 STARLINK-5041,1 53891U 22119F   22282.91667824 -.00126943  00000-0 -91177-3 0  9995,2 53891  53.2178 179.0116 0001072  88.9851 225.7257 15.73251467  1303,6727.748000000001,91.53,350.335,348.892,0.0
53891.0,STARLINK-5041,PAYLOAD,2022-10-10 04:00:00,15.73141148,0.000128,53.2175,177.7719,79.837,211.6001,-5.915399999999999e-06,-1.447e-05,0.0,0 STARLINK-5041,1 53891U 22119F   22283.16667824 -.00001447  00000-0 -59154-5 0  9995,2 53891  53.2175 177.7719 0001280  79.8370 211.6001 15.73141148  2823,6728.063,91.537,350.789,349.06699999999995,0.0
53891.0,STARLINK-5041,PAYLOAD,2022-10-10 14:00:01,15.73206926,0.0001189999999999,53.2173,175.7102,100.1153,32.5076,0.00020088,0.00027673,0.0,0 STARLINK-5041,1 53891U 22119F   22283.58334491  .00027673  00000-0  20088-3 0  9991,2 53891  53.2173 175.7102 0001190 100.1153  32.5076 15.73206926  2897,6727.875,91.533,350.541,348.94,0.0
53891.0,STARLINK-5041,PAYLOAD,2022-10-10 20:00:01,15.73337799,0.0001167999999999,53.2174,174.4675,97.4115,11.9028,-0.0021925,-0.00299384,0.0,0 STARLINK-5041,1 53891U 22119F   22283.83334491 -.00299384  00000-0 -21925-2 0  9991,2 53891  53.2174 174.4675 0001168  97.4115  11.9028 15.73337799  2936,6727.502,91.525,350.153,348.582,0.0
53891.0,STARLINK-5041,PAYLOAD,2022-10-10 22:00:01,15.73343521,0.0001097999999999,53.2174,174.0544,96.5137,125.1112,-0.0030074,-0.0040545,0.0,0 STARLINK-5041,1 53891U 22119F   22283.91668981 -.00405450  00000-0 -30074-2 0  9992,2 53891  53.2174 174.0544 0001098  96.5137 125.1112 15.73343521  1305,6727.486,91.525,350.09,348.612,0.0
53891.0,STARLINK-5041,PAYLOAD,2022-10-11 04:00:00,15.73194551,9.62e-05,53.2166,172.8228,82.8699,115.4031,-2.1089e-05,-3.577e-05,0.0,0 STARLINK-5041,1 53891U 22119F   22284.16667824 -.00003577  00000-0 -21089-4 0  9997,2 53891  53.2166 172.8228 0000962  82.8699 115.4031 15.73194551  2985,6727.911,91.533,350.423,349.12800000000016,0.0
53891.0,STARLINK-5041,PAYLOAD,2022-10-11 12:00:00,15.73084262,0.0001161,53.217,171.1649,86.8102,200.4162,0.00061308,0.00085877,0.0,0 STARLINK-5041,1 53891U 22119F   22284.50001157  .00085877  00000-0  61308-3 0  9994,2 53891  53.2170 171.1649 0001161  86.8102 200.4162 15.73084262  3038,6728.225,91.54,350.871,349.309,0.0
53891.0,STARLINK-5041,PAYLOAD,2022-10-11 14:00:01,15.73035566,7.64e-05,53.2172,170.7474,86.5426,312.8796,0.0018961,0.0027238,0.0,0 STARLINK-5041,1 53891U 22119F   22284.58334491  .00272380  00000-0  18961-2 0  9995,2 53891  53.2172 170.7474 0000764  86.5426 312.8796 15.73035566  1307,6728.364000000001,91.543,350.74300000000005,349.715,0.0
53891.0,STARLINK-5041,PAYLOAD,2022-10-11 22:00:00,15.73204732,0.0001475,53.2173,169.0987,102.7081,25.5638,-9.897e-06,-2.009e-05,0.0,0 STARLINK-5041,1 53891U 22119F   22284.91667824 -.00002009  00000-0 -98970-5 0  9993,2 53891  53.2173 169.0987 0001475 102.7081  25.5638 15.73204732  1302,6727.882,91.533,350.73900000000015,348.754,0.0
53891.0,STARLINK-5041,PAYLOAD,2022-10-12 12:00:00,15.73283473,0.0001097,53.217,166.2191,97.6986,96.1637,-0.00078219,-0.00109366,0.0,0 STARLINK-5041,1 53891U 22119F   22285.50001157 -.00109366  00000-0 -78219-3 0  9996,2 53891  53.2170 166.2191 0001097  97.6986  96.1637 15.73283473  3192,6727.656999999997,91.528,350.26,348.784,0.0
53891.0,STARLINK-5041,PAYLOAD,2022-10-12 14:00:01,15.73261638,0.000108,53.2168,165.8048,98.9026,207.2163,-0.00072547,-0.00101479,0.0,0 STARLINK-5041,1 53891U 22119F   22285.58334491 -.00101479  00000-0 -72547-3 0  9999,2 53891  53.2168 165.8048 0001080  98.9026 207.2163 15.73261638  1305,6727.719,91.53,350.311,348.858,0.0
53891.0,STARLINK-5041,PAYLOAD,2022-10-12 20:00:01,15.73172101,8.93e-05,53.2174,164.5642,87.9072,194.9505,0.00034176,0.00047558,0.0,0 STARLINK-5041,1 53891U 22119F   22285.83334491  .00047558  00000-0  34176-3 0  9998,2 53891  53.2174 164.5642 0000893  87.9072 194.9505 15.73172101  3241,6727.975,91.535,350.441,349.23900000000015,0.0
53891.0,STARLINK-5041,PAYLOAD,2022-10-12 22:00:00,15.73195062,8.52e-05,53.2174,164.1509,80.5312,314.5472,0.00010504,0.00014144,0.0,0 STARLINK-5041,1 53891U 22119F   22285.91667824  .00014144  00000-0  10504-3 0  9990,2 53891  53.2174 164.1509 0000852  80.5312 314.5472 15.73195062  1309,6727.909000000002,91.533,350.347,349.201,0.0
53891.0,STARLINK-5041,PAYLOAD,2022-10-13 14:00:01,15.72971427,0.0001227,53.2164,160.8527,91.6712,121.4171,0.0022629,0.00326421,0.0,0 STARLINK-5041,1 53891U 22119F   22286.58334491  .00326421  00000-0  22629-2 0  9999,2 53891  53.2164 160.8527 0001227  91.6712 121.4171 15.72971427  1302,6728.547,91.546,351.23800000000006,349.586,0.0
53891.0,STARLINK-5041,PAYLOAD,2022-10-13 16:00:00,15.73045251,0.000134,53.2167,160.439,92.0568,233.2005,0.0017784,0.00254999,0.0,0 STARLINK-5041,1 53891U 22119F   22286.66667824  .00254999  00000-0  17784-2 0  9993,2 53891  53.2167 160.4390 0001340  92.0568 233.2005 15.73045251  3374,6728.3359999999975,91.542,351.103,349.3,0.0
53891.0,STARLINK-5041,PAYLOAD,2022-10-13 20:00:01,15.73205443,0.0001426999999999,53.2174,159.6125,91.1861,98.523,-4.5685e-06,-1.261e-05,0.0,0 STARLINK-5041,1 53891U 22119F   22286.83335648 -.00001261  00000-0 -45685-5 0  9996,2 53891  53.2174 159.6125 0001427  91.1861  98.5230 15.73205443  3407,6727.88,91.533,350.705,348.785,0.0
53891.0,STARLINK-5041,PAYLOAD,2022-10-13 22:00:00,15.73203699,0.0001422,53.2173,159.2005,87.41799999999998,214.4602,6.4559e-06,2.86e-06,0.0,0 STARLINK-5041,1 53891U 22119F   22286.91667824  .00000286  00000-0  64559-5 0  9994,2 53891  53.2173 159.2005 0001422  87.4180 214.4602 15.73203699  1306,6727.885,91.533,350.706,348.793,0.0
53891.0,STARLINK-5041,PAYLOAD,2022-10-14 06:00:00,15.73254808,0.0001028,53.2162,157.5602,89.7048,301.1939,-0.0016235,-0.00223045,0.0,0 STARLINK-5041,1 53891U 22119F   22287.25001157 -.00223045  00000-0 -16235-2 0  9990,2 53891  53.2162 157.5602 0001028  89.7048 301.1939 15.73254808  3473,6727.739000000001,91.53,350.296,348.912,0.0
53891.0,STARLINK-5041,PAYLOAD,2022-10-14 12:00:00,15.73017002,0.0001177,53.217,156.3165,95.003,272.6176,0.0019191,0.00275574,0.0,0 STARLINK-5041,1 53891U 22119F   22287.50001157  .00275574  00000-0  19191-2 0  9994,2 53891  53.2170 156.3165 0001177  95.0030 272.6176 15.73017002  3501,6728.417,91.544,351.074,349.49,0.0
53891.0,STARLINK-5041,PAYLOAD,2022-10-14 14:00:01,15.73110663,0.0001264999999999,53.2172,155.9025,97.2169,22.575,0.0010581,0.00149981,0.0,0 STARLINK-5041,1 53891U 22119F   22287.58334491  .00149981  00000-0  10581-2 0  9998,2 53891  53.2172 155.9025 0001265  97.2169  22.5750 15.73110663  1301,6728.15,91.538,350.866,349.164,0.0
53891.0,STARLINK-5041,PAYLOAD,2022-10-14 20:00:01,15.7320387,0.0001252,53.2175,154.6638,92.9006,3.547,6.3329e-06,2.69e-06,0.0,0 STARLINK-5041,1 53891U 22119F   22287.83334491  .00000269  00000-0  63329-5 0  9992,2 53891  53.2175 154.6638 0001252  92.9006   3.5470 15.73203870  1309,6727.884,91.533,350.591,348.907,0.0
53891.0,STARLINK-5041,PAYLOAD,2022-10-15 12:00:00,15.73200208,9.09e-05,53.215,151.3821,108.4337,166.1036,4.168800000000001e-05,5.235e-05,0.0,0 STARLINK-5041,1 53891U 22119F   22288.50001157  .00005235  00000-0  41688-4 0  9998,2 53891  53.2150 151.3821 0000909 108.4337 166.1036 15.73200208  3665,6727.895,91.533,350.371,349.148,0.0
53891.0,STARLINK-5041,PAYLOAD,2022-10-15 14:00:01,15.73200367,9.74e-05,53.2152,150.9695,109.0225,277.7488,9.1128e-06,6.6e-06,0.0,0 STARLINK-5041,1 53891U 22119F   22288.58334491  .00000660  00000-0  91128-5 0  9998,2 53891  53.2152 150.9695 0000974 109.0225 277.7488 15.73200367  1301,6727.894,91.533,350.414,349.10400000000016,0.0
53891.0,STARLINK-5041,PAYLOAD,2022-10-15 20:00:01,15.73230816,9.74e-05,53.2153,149.7339,96.9408,266.5814,-0.0010726,-0.00148711,0.0,0 STARLINK-5041,1 53891U 22119F   22288.83335648 -.00148711  00000-0 -10726-2 0  9995,2 53891  53.2153 149.7339 0000974  96.9408 266.5814 15.73230816  3718,6727.807,91.531,350.32800000000015,349.017,0.0
53891.0,STARLINK-5041,PAYLOAD,2022-10-15 22:00:01,15.73193854,0.0001034,53.2153,149.3221,91.988,23.7734,-0.00081599,-0.00113572,0.0,0 STARLINK-5041,1 53891U 22119F   22288.91668981 -.00113572  00000-0 -81599-3 0  9997,2 53891  53.2153 149.3221 0001034  91.9880  23.7734 15.73193854  1308,6727.913000000001,91.534,350.473,349.082,0.0
